******** Week 935 almanac for PRN-07 ********
ID:                         07
Health:                     000
Eccentricity:               2.8719902039E-003
Time of Applicability(s):  172032.0000
Orbital Inclination(rad):  -0.0826492071
Rate of Right Ascen(r/s):  -2.7658294900E-009
SQRT(A)  (m 1/2):           6493.764160
Right Ascen at Week(rad):  -2.5898512980E+000
Argument of Perigee(rad):  -2.585823100
Mean Anom(rad):             7.2261767800E-001
Af0(s):                    -4.2343140000E-004
Af1(s/s):                  -6.1845600000E-011
week:                        935

******** Week 935 almanac for PRN-08 ********
ID:                         08
Health:                     000
Eccentricity:               2.7527809143E-003
Time of Applicability(s):  172032.0000
Orbital Inclination(rad):   0.1239648224
Rate of Right Ascen(r/s):  -1.7715023600E-009
SQRT(A)  (m 1/2):           6493.733398
Right Ascen at Week(rad):  -3.9311740600E-001
Argument of Perigee(rad):  -3.134376652
Mean Anom(rad):            -9.2799583400E-001
Af0(s):                     2.0122530000E-004
Af1(s/s):                  -2.5465900000E-011
week:                        935

******** Week 935 almanac for PRN-09 ********
ID:                         09
Health:                     000
Eccentricity:               1.1167526245E-002
Time of Applicability(s):  172032.0000
Orbital Inclination(rad):   0.0081253045
Rate of Right Ascen(r/s):  -1.7943604600E-009
SQRT(A)  (m 1/2):           6493.754883
Right Ascen at Week(rad):   1.7862861730E+000
Argument of Perigee(rad):  -2.327940182
Mean Anom(rad):             2.1357255730E+000
Af0(s):                    -1.7547610000E-004
Af1(s/s):                  -5.0931700000E-011
week:                        935

